{
  "type": "FeatureCollection",
  "features": [
    {
      "type": "Feature",
      "properties": {
        "norad_id": 34492,
        "name": "IRIDIUM 33 DEB",
        "group": "iridium-33-debris",
        "lat": 32.04418008269097,
        "lon": -19.987380820601118,
        "alt_km": 888.8211380662242,
        "timestamp": "2025-12-04T21:36:16.257136+00:00",
        "meta_object_name": "IRIDIUM 33 DEB",
        "meta_object_id": "1997-051GH",
        "meta_epoch": "2025-12-04T06:22:25.669632",
        "meta_mean_motion": 14.2534836,
        "meta_eccentricity": 0.0190073,
        "meta_inclination": 86.4709,
        "meta_ra_of_asc_node": 338.0551,
        "meta_arg_of_pericenter": 265.7011,
        "meta_mean_anomaly": 110.4059,
        "meta_ephemeris_type": 0,
        "meta_classification_type": "U",
        "meta_norad_cat_id": 34492,
        "meta_element_set_no": 999,
        "meta_rev_at_epoch": 84938,
        "meta_bstar": 0.015697091,
        "meta_mean_motion_dot": 0.00044922,
        "meta_mean_motion_ddot": 0,
        "tle_line1": "1 34492U 97051GH  25338.26557488  .00044922  00000+0  15697-1 0  9999",
        "tle_line2": "2 34492  86.4709 338.0551 0190073 265.7011 110.4059 14.25348360849383"
      },
      "geometry": {
        "type": "Point",
        "coordinates": [
          -19.987380820601118,
          32.04418008269097
        ]
      }
    },
    {
      "type": "Feature",
      "properties": {
        "norad_id": 34497,
        "name": "IRIDIUM 33 DEB",
        "group": "iridium-33-debris",
        "lat": -35.5928256307472,
        "lon": -121.5792745585611,
        "alt_km": 855.9491232505816,
        "timestamp": "2025-12-04T21:36:16.257146+00:00",
        "meta_object_name": "IRIDIUM 33 DEB",
        "meta_object_id": "1997-051GN",
        "meta_epoch": "2025-12-04T12:14:50.226720",
        "meta_mean_motion": 14.27417883,
        "meta_eccentricity": 0.0079675,
        "meta_inclination": 86.2786,
        "meta_ra_of_asc_node": 55.9172,
        "meta_arg_of_pericenter": 6.4341,
        "meta_mean_anomaly": 7.361,
        "meta_ephemeris_type": 0,
        "meta_classification_type": "U",
        "meta_norad_cat_id": 34497,
        "meta_element_set_no": 999,
        "meta_rev_at_epoch": 86766,
        "meta_bstar": 0.0011124278,
        "meta_mean_motion_dot": 2.839e-05,
        "meta_mean_motion_ddot": 0,
        "tle_line1": "1 34497U 97051GN  25338.51030355  .00002839  00000+0  11124-2 0  9994",
        "tle_line2": "2 34497  86.2786  55.9172 0079675   6.4341   7.3610 14.27417883867662"
      },
      "geometry": {
        "type": "Point",
        "coordinates": [
          -121.5792745585611,
          -35.5928256307472
        ]
      }
    },
    {
      "type": "Feature",
      "properties": {
        "norad_id": 34508,
        "name": "IRIDIUM 33 DEB",
        "group": "iridium-33-debris",
        "lat": 65.05782895475159,
        "lon": 113.81074588710372,
        "alt_km": 789.653473236317,
        "timestamp": "2025-12-04T21:36:16.257156+00:00",
        "meta_object_name": "IRIDIUM 33 DEB",
        "meta_object_id": "1997-051GZ",
        "meta_epoch": "2025-12-04T14:37:10.254144",
        "meta_mean_motion": 14.38305208,
        "meta_eccentricity": 0.00655551,
        "meta_inclination": 86.3701,
        "meta_ra_of_asc_node": 106.0892,
        "meta_arg_of_pericenter": 199.4051,
        "meta_mean_anomaly": 160.4651,
        "meta_ephemeris_type": 0,
        "meta_classification_type": "U",
        "meta_norad_cat_id": 34508,
        "meta_element_set_no": 999,
        "meta_rev_at_epoch": 87192,
        "meta_bstar": 0.0039355488,
        "meta_mean_motion_dot": 0.00012307,
        "meta_mean_motion_ddot": 0,
        "tle_line1": "1 34508U 97051GZ  25338.60914646  .00012307  00000+0  39355-2 0  9998",
        "tle_line2": "2 34508  86.3701 106.0892 0065555 199.4051 160.4651 14.38305208871922"
      },
      "geometry": {
        "type": "Point",
        "coordinates": [
          113.81074588710372,
          65.05782895475159
        ]
      }
    },
    {
      "type": "Feature",
      "properties": {
        "norad_id": 34521,
        "name": "IRIDIUM 33 DEB",
        "group": "iridium-33-debris",
        "lat": -80.14158879892601,
        "lon": -124.64205867635353,
        "alt_km": 689.3759928807294,
        "timestamp": "2025-12-04T21:36:16.257166+00:00",
        "meta_object_name": "IRIDIUM 33 DEB",
        "meta_object_id": "1997-051HN",
        "meta_epoch": "2025-12-04T15:29:32.133984",
        "meta_mean_motion": 14.63253587,
        "meta_eccentricity": 0.00011123,
        "meta_inclination": 86.3809,
        "meta_ra_of_asc_node": 34.1114,
        "meta_arg_of_pericenter": 282.2127,
        "meta_mean_anomaly": 77.896,
        "meta_ephemeris_type": 0,
        "meta_classification_type": "U",
        "meta_norad_cat_id": 34521,
        "meta_element_set_no": 999,
        "meta_rev_at_epoch": 88354,
        "meta_bstar": 0.0022510533,
        "meta_mean_motion_dot": 0.00011629,
        "meta_mean_motion_ddot": 0,
        "tle_line1": "1 34521U 97051HN  25338.64551081  .00011629  00000+0  22511-2 0  9999",
        "tle_line2": "2 34521  86.3809  34.1114 0001112 282.2127  77.8960 14.63253587883543"
      },
      "geometry": {
        "type": "Point",
        "coordinates": [
          -124.64205867635353,
          -80.14158879892601
        ]
      }
    },
    {
      "type": "Feature",
      "properties": {
        "norad_id": 34525,
        "name": "IRIDIUM 33 DEB",
        "group": "iridium-33-debris",
        "lat": -64.46335820201831,
        "lon": 42.561240847236974,
        "alt_km": 760.9332120263925,
        "timestamp": "2025-12-04T21:36:16.257176+00:00",
        "meta_object_name": "IRIDIUM 33 DEB",
        "meta_object_id": "1997-051HS",
        "meta_epoch": "2025-12-04T15:56:56.568768",
        "meta_mean_motion": 14.42875001,
        "meta_eccentricity": 0.0006483,
        "meta_inclination": 86.3735,
        "meta_ra_of_asc_node": 50.29,
        "meta_arg_of_pericenter": 113.478,
        "meta_mean_anomaly": 38.6351,
        "meta_ephemeris_type": 0,
        "meta_classification_type": "U",
        "meta_norad_cat_id": 34525,
        "meta_element_set_no": 999,
        "meta_rev_at_epoch": 87971,
        "meta_bstar": 0.00072079936,
        "meta_mean_motion_dot": 2.426e-05,
        "meta_mean_motion_ddot": 0,
        "tle_line1": "1 34525U 97051HS  25338.66454362  .00002426  00000+0  72080-3 0  9991",
        "tle_line2": "2 34525  86.3735  50.2900 0006483 113.4780  38.6351 14.42875001879714"
      },
      "geometry": {
        "type": "Point",
        "coordinates": [
          42.561240847236974,
          -64.46335820201831
        ]
      }
    },
    {
      "type": "Feature",
      "properties": {
        "norad_id": 34529,
        "name": "IRIDIUM 33 DEB",
        "group": "iridium-33-debris",
        "lat": -74.048187718135,
        "lon": -128.39566802050857,
        "alt_km": 762.1376828105977,
        "timestamp": "2025-12-04T21:36:16.257186+00:00",
        "meta_object_name": "IRIDIUM 33 DEB",
        "meta_object_id": "1997-051HW",
        "meta_epoch": "2025-12-04T10:25:29.464320",
        "meta_mean_motion": 14.40606025,
        "meta_eccentricity": 0.00037971,
        "meta_inclination": 86.3647,
        "meta_ra_of_asc_node": 38.9518,
        "meta_arg_of_pericenter": 206.5624,
        "meta_mean_anomaly": 153.5381,
        "meta_ephemeris_type": 0,
        "meta_classification_type": "U",
        "meta_norad_cat_id": 34529,
        "meta_element_set_no": 999,
        "meta_rev_at_epoch": 88022,
        "meta_bstar": 0.00024439882,
        "meta_mean_motion_dot": 7.98e-06,
        "meta_mean_motion_ddot": 0,
        "tle_line1": "1 34529U 97051HW  25338.43436880  .00000798  00000+0  24440-3 0  9992",
        "tle_line2": "2 34529  86.3647  38.9518 0003797 206.5624 153.5381 14.40606025880228"
      },
      "geometry": {
        "type": "Point",
        "coordinates": [
          -128.39566802050857,
          -74.048187718135
        ]
      }
    },
    {
      "type": "Feature",
      "properties": {
        "norad_id": 34538,
        "name": "IRIDIUM 33 DEB",
        "group": "iridium-33-debris",
        "lat": 35.12911710088586,
        "lon": 11.61527642355534,
        "alt_km": 729.4324514889513,
        "timestamp": "2025-12-04T21:36:16.257196+00:00",
        "meta_object_name": "IRIDIUM 33 DEB",
        "meta_object_id": "1997-051JF",
        "meta_epoch": "2025-12-04T07:02:51.254592",
        "meta_mean_motion": 14.42571124,
        "meta_eccentricity": 0.00338519,
        "meta_inclination": 86.278,
        "meta_ra_of_asc_node": 9.2557,
        "meta_arg_of_pericenter": 356.4669,
        "meta_mean_anomaly": 130.6671,
        "meta_ephemeris_type": 0,
        "meta_classification_type": "U",
        "meta_norad_cat_id": 34538,
        "meta_element_set_no": 999,
        "meta_rev_at_epoch": 87634,
        "meta_bstar": 0.0020099662,
        "meta_mean_motion_dot": 6.735e-05,
        "meta_mean_motion_ddot": 0,
        "tle_line1": "1 34538U 97051JF  25338.29364878  .00006735  00000+0  20100-2 0  9998",
        "tle_line2": "2 34538  86.2780   9.2557 0033851 356.4669 130.6671 14.42571124876346"
      },
      "geometry": {
        "type": "Point",
        "coordinates": [
          11.61527642355534,
          35.12911710088586
        ]
      }
    }
  ]
}